start=new Date('2023-04-11T00:00:00.000Z').valueOf();
sats=[{"GP_ID":"229852526","SITE":"AFWTR","OBJECT_TYPE":"PAYLOAD","SEMIMAJOR_AXIS":"6737.260","RCS_SIZE":"LARGE","NORAD_CAT_ID":"55788","REF_FRAME":"TEME","RA_OF_ASC_NODE":"49.5118","EPHEMERIS_TYPE":"0","LAUNCH_DATE":"2023-03-03","COUNTRY_CODE":"US","ARG_OF_PERICENTER":"268.5280","TLE_LINE1":"1 55788U 23028AZ  23100.34331336 -.00000452  00000-0 -19910-5 0  9998","ECCENTRICITY":"0.00034100","INCLINATION":"70.0008","PERIOD":"91.724","FILE":"3885195","CLASSIFICATION_TYPE":"U","EPOCH":"2023-04-10T08:14:22.274304","ELEMENT_SET_NO":"999","MEAN_MOTION":"15.69920896","REV_AT_EPOCH":"657","OBJECT_NAME":"STARLINK-5804","OBJECT_ID":"2023-028AZ","DECAY_DATE":null,"MEAN_MOTION_DOT":"-0.00000452","TLE_LINE2":"2 55788  70.0008  49.5118 0003410 268.5280  91.5525 15.69920896  6577","TIME_SYSTEM":"UTC","MEAN_MOTION_DDOT":"0.0000000000000","CENTER_NAME":"EARTH","MEAN_ELEMENT_THEORY":"SGP4","PERIAPSIS":"356.828","MEAN_ANOMALY":"91.5525","BSTAR":"-0.00000199100000","APOAPSIS":"361.423"},{"NORAD_CAT_ID":"55789","REF_FRAME":"TEME","OBJECT_TYPE":"PAYLOAD","SITE":"AFWTR","SEMIMAJOR_AXIS":"6737.255","RCS_SIZE":"LARGE","GP_ID":"229881986","LAUNCH_DATE":"2023-03-03","EPHEMERIS_TYPE":"0","RA_OF_ASC_NODE":"48.0776","PERIOD":"91.724","INCLINATION":"69.9992","ARG_OF_PERICENTER":"265.7004","TLE_LINE1":"1 55789U 23028BA  23100.85251766  .00000803  00000-0  84495-5 0  9991","ECCENTRICITY":"0.00034840","COUNTRY_CODE":"US","FILE":"3885363","ELEMENT_SET_NO":"999","MEAN_MOTION":"15.69922905","CLASSIFICATION_TYPE":"U","EPOCH":"2023-04-10T20:27:37.525824","MEAN_MOTION_DOT":"0.00000803","OBJECT_ID":"2023-028BA","DECAY_DATE":null,"REV_AT_EPOCH":"665","OBJECT_NAME":"STARLINK-5815","MEAN_MOTION_DDOT":"0.0000000000000","CENTER_NAME":"EARTH","TIME_SYSTEM":"UTC","TLE_LINE2":"2 55789  69.9992  48.0776 0003484 265.7004  94.3793 15.69922905  6655","BSTAR":"0.00000844950000","APOAPSIS":"361.467","PERIAPSIS":"356.772","MEAN_ANOMALY":"94.3793","MEAN_ELEMENT_THEORY":"SGP4"},{"MEAN_MOTION_DOT":"0.00000886","OBJECT_NAME":"STARLINK-5813","REV_AT_EPOCH":"665","OBJECT_ID":"2023-028BB","DECAY_DATE":null,"MEAN_MOTION":"15.69928257","ELEMENT_SET_NO":"999","CLASSIFICATION_TYPE":"U","EPOCH":"2023-04-10T20:27:46.488960","PERIAPSIS":"356.719","MEAN_ANOMALY":"95.4890","APOAPSIS":"361.489","BSTAR":"0.00000913550000","MEAN_ELEMENT_THEORY":"SGP4","CENTER_NAME":"EARTH","MEAN_MOTION_DDOT":"0.0000000000000","TIME_SYSTEM":"UTC","TLE_LINE2":"2 55790  69.9978  48.0784 0003540 264.5901  95.4890 15.69928257  6652","LAUNCH_DATE":"2023-03-03","RA_OF_ASC_NODE":"48.0784","EPHEMERIS_TYPE":"0","REF_FRAME":"TEME","NORAD_CAT_ID":"55790","GP_ID":"229882233","RCS_SIZE":"LARGE","SEMIMAJOR_AXIS":"6737.239","OBJECT_TYPE":"PAYLOAD","SITE":"AFWTR","FILE":"3885363","INCLINATION":"69.9978","PERIOD":"91.724","COUNTRY_CODE":"US","TLE_LINE1":"1 55790U 23028BB  23100.85262140  .00000886  00000-0  91355-5 0  9995","ECCENTRICITY":"0.00035400","ARG_OF_PERICENTER":"264.5901"},{"TIME_SYSTEM":"UTC","MEAN_MOTION_DDOT":"0.0000000000000","CENTER_NAME":"EARTH","TLE_LINE2":"2 55791  69.9980  48.0778 0003087 263.7990  96.2854 15.69930008  6650","BSTAR":"0.00000012440000","APOAPSIS":"361.179","MEAN_ANOMALY":"96.2854","PERIAPSIS":"357.019","MEAN_ELEMENT_THEORY":"SGP4","ELEMENT_SET_NO":"999","MEAN_MOTION":"15.69930008","CLASSIFICATION_TYPE":"U","EPOCH":"2023-04-10T20:27:55.563552","MEAN_MOTION_DOT":"-0.00000198","OBJECT_ID":"2023-028BC","DECAY_DATE":null,"REV_AT_EPOCH":"665","OBJECT_NAME":"STARLINK-5807","PERIOD":"91.724","INCLINATION":"69.9980","ARG_OF_PERICENTER":"263.7990","ECCENTRICITY":"0.00030870","TLE_LINE1":"1 55791U 23028BC  23100.85272643 -.00000198  00000-0  12440-6 0  9991","COUNTRY_CODE":"US","FILE":"3885363","REF_FRAME":"TEME","NORAD_CAT_ID":"55791","SITE":"AFWTR","OBJECT_TYPE":"PAYLOAD","SEMIMAJOR_AXIS":"6737.234","RCS_SIZE":"LARGE","GP_ID":"229882988","LAUNCH_DATE":"2023-03-03","EPHEMERIS_TYPE":"0","RA_OF_ASC_NODE":"48.0778"},{"MEAN_MOTION_DOT":"0.00002954","OBJECT_NAME":"STARLINK-5856","REV_AT_EPOCH":"464","DECAY_DATE":null,"OBJECT_ID":"2023-037A","MEAN_MOTION":"15.69933925","ELEMENT_SET_NO":"999","EPOCH":"2023-04-10T17:55:17.131584","CLASSIFICATION_TYPE":"U","PERIAPSIS":"356.811","MEAN_ANOMALY":"98.0361","APOAPSIS":"361.365","BSTAR":"0.00002631800000","MEAN_ELEMENT_THEORY":"SGP4","MEAN_MOTION_DDOT":"0.0000000000000","TIME_SYSTEM":"UTC","CENTER_NAME":"EARTH","TLE_LINE2":"2 55914  69.9998 113.6691 0003380 262.0451  98.0361 15.69933925  4640","LAUNCH_DATE":"2023-03-17","RA_OF_ASC_NODE":"113.6691","EPHEMERIS_TYPE":"0","NORAD_CAT_ID":"55914","REF_FRAME":"TEME","GP_ID":"229881501","RCS_SIZE":"LARGE","SEMIMAJOR_AXIS":"6737.223","SITE":"AFWTR","OBJECT_TYPE":"PAYLOAD","FILE":"3885363","INCLINATION":"69.9998","PERIOD":"91.724","COUNTRY_CODE":"US","TLE_LINE1":"1 55914U 23037A   23100.74672606  .00002954  00000-0  26318-4 0  9997","ECCENTRICITY":"0.00033800","ARG_OF_PERICENTER":"262.0451"},{"EPOCH":"2023-04-10T13:19:25.353120","CLASSIFICATION_TYPE":"U","ELEMENT_SET_NO":"999","MEAN_MOTION":"15.69942414","DECAY_DATE":null,"OBJECT_ID":"2023-037B","REV_AT_EPOCH":"461","OBJECT_NAME":"STARLINK-5859","MEAN_MOTION_DOT":"0.00003100","TLE_LINE2":"2 55915  69.9998 114.2084 0004025 276.2457  83.8281 15.69942414  4617","TIME_SYSTEM":"UTC","MEAN_MOTION_DDOT":"0.0000000000000","CENTER_NAME":"EARTH","MEAN_ELEMENT_THEORY":"SGP4","BSTAR":"0.00002752300000","APOAPSIS":"361.775","PERIAPSIS":"356.352","MEAN_ANOMALY":"83.8281","OBJECT_TYPE":"PAYLOAD","SITE":"AFWTR","SEMIMAJOR_AXIS":"6737.199","RCS_SIZE":"LARGE","GP_ID":"229852793","REF_FRAME":"TEME","NORAD_CAT_ID":"55915","RA_OF_ASC_NODE":"114.2084","EPHEMERIS_TYPE":"0","LAUNCH_DATE":"2023-03-17","ARG_OF_PERICENTER":"276.2457","TLE_LINE1":"1 55915U 23037B   23100.55515455  .00003100  00000-0  27523-4 0  9998","ECCENTRICITY":"0.00040250","COUNTRY_CODE":"US","PERIOD":"91.723","INCLINATION":"69.9998","FILE":"3885195"},{"CLASSIFICATION_TYPE":"U","EPOCH":"2023-04-10T13:19:52.588128","MEAN_MOTION":"15.69922947","ELEMENT_SET_NO":"999","OBJECT_NAME":"STARLINK-5796","REV_AT_EPOCH":"392","OBJECT_ID":"2023-037C","DECAY_DATE":null,"MEAN_MOTION_DOT":"0.00002378","TLE_LINE2":"2 55916  69.9994 114.2060 0003490 269.2105  90.8691 15.69922947  3920","MEAN_MOTION_DDOT":"0.0000000000000","TIME_SYSTEM":"UTC","CENTER_NAME":"EARTH","MEAN_ELEMENT_THEORY":"SGP4","PERIAPSIS":"356.768","MEAN_ANOMALY":"90.8691","APOAPSIS":"361.471","BSTAR":"0.00002154200000","GP_ID":"229852825","RCS_SIZE":"LARGE","SEMIMAJOR_AXIS":"6737.254","OBJECT_TYPE":"PAYLOAD","SITE":"AFWTR","REF_FRAME":"TEME","NORAD_CAT_ID":"55916","RA_OF_ASC_NODE":"114.2060","EPHEMERIS_TYPE":"0","LAUNCH_DATE":"2023-03-17","COUNTRY_CODE":"US","ECCENTRICITY":"0.00034900","TLE_LINE1":"1 55916U 23037C   23100.55546977  .00002378  00000-0  21542-4 0  9993","ARG_OF_PERICENTER":"269.2105","INCLINATION":"69.9994","PERIOD":"91.724","FILE":"3885195"},{"COUNTRY_CODE":"US","ARG_OF_PERICENTER":"264.4783","TLE_LINE1":"1 55917U 23037D   23100.55526888 -.00001237  00000-0 -85263-5 0  9999","ECCENTRICITY":"0.00035070","INCLINATION":"69.9998","PERIOD":"91.725","FILE":"3885195","GP_ID":"229852887","SITE":"AFWTR","OBJECT_TYPE":"PAYLOAD","RCS_SIZE":"LARGE","SEMIMAJOR_AXIS":"6737.278","NORAD_CAT_ID":"55917","REF_FRAME":"TEME","RA_OF_ASC_NODE":"114.2062","EPHEMERIS_TYPE":"0","LAUNCH_DATE":"2023-03-17","TLE_LINE2":"2 55917  69.9998 114.2062 0003507 264.4783  95.6013 15.69914620  3925","MEAN_MOTION_DDOT":"0.0000000000000","TIME_SYSTEM":"UTC","CENTER_NAME":"EARTH","MEAN_ELEMENT_THEORY":"SGP4","PERIAPSIS":"356.781","MEAN_ANOMALY":"95.6013","BSTAR":"-0.00000852630000","APOAPSIS":"361.506","EPOCH":"2023-04-10T13:19:35.231232","CLASSIFICATION_TYPE":"U","ELEMENT_SET_NO":"999","MEAN_MOTION":"15.69914620","REV_AT_EPOCH":"392","OBJECT_NAME":"STARLINK-5855","OBJECT_ID":"2023-037D","DECAY_DATE":null,"MEAN_MOTION_DOT":"-0.00001237"},{"FILE":"3885195","ECCENTRICITY":"0.00036360","TLE_LINE1":"1 55918U 23037E   23100.55536680  .00003028  00000-0  26937-4 0  9991","ARG_OF_PERICENTER":"264.0347","COUNTRY_CODE":"US","PERIOD":"91.724","INCLINATION":"69.9993","EPHEMERIS_TYPE":"0","RA_OF_ASC_NODE":"114.2058","LAUNCH_DATE":"2023-03-17","RCS_SIZE":"LARGE","SEMIMAJOR_AXIS":"6737.233","SITE":"AFWTR","OBJECT_TYPE":"PAYLOAD","GP_ID":"229852791","REF_FRAME":"TEME","NORAD_CAT_ID":"55918","MEAN_ELEMENT_THEORY":"SGP4","APOAPSIS":"361.547","BSTAR":"0.00002693700000","MEAN_ANOMALY":"96.0434","PERIAPSIS":"356.648","TLE_LINE2":"2 55918  69.9993 114.2058 0003636 264.0347  96.0434 15.69930509  3927","MEAN_MOTION_DDOT":"0.0000000000000","TIME_SYSTEM":"UTC","CENTER_NAME":"EARTH","OBJECT_ID":"2023-037E","DECAY_DATE":null,"OBJECT_NAME":"STARLINK-5867","REV_AT_EPOCH":"392","MEAN_MOTION_DOT":"0.00003028","EPOCH":"2023-04-10T13:19:43.691520","CLASSIFICATION_TYPE":"U","MEAN_MOTION":"15.69930509","ELEMENT_SET_NO":"999"},{"PERIOD":"91.723","INCLINATION":"70.0002","ARG_OF_PERICENTER":"267.5769","TLE_LINE1":"1 55919U 23037F   23100.74619809  .00005247  00000-0  45357-4 0  9990","ECCENTRICITY":"0.00037040","COUNTRY_CODE":"US","FILE":"3885363","REF_FRAME":"TEME","NORAD_CAT_ID":"55919","OBJECT_TYPE":"PAYLOAD","SITE":"AFWTR","RCS_SIZE":"LARGE","SEMIMAJOR_AXIS":"6737.216","GP_ID":"229882749","LAUNCH_DATE":"2023-03-17","RA_OF_ASC_NODE":"113.6661","EPHEMERIS_TYPE":"0","CENTER_NAME":"EARTH","MEAN_MOTION_DDOT":"0.0000000000000","TIME_SYSTEM":"UTC","TLE_LINE2":"2 55919  70.0002 113.6661 0003704 267.5769  92.5003 15.69936330  3951","BSTAR":"0.00004535700000","APOAPSIS":"361.577","PERIAPSIS":"356.586","MEAN_ANOMALY":"92.5003","MEAN_ELEMENT_THEORY":"SGP4","ELEMENT_SET_NO":"999","MEAN_MOTION":"15.69936330","CLASSIFICATION_TYPE":"U","EPOCH":"2023-04-10T17:54:31.514976","MEAN_MOTION_DOT":"0.00005247","DECAY_DATE":null,"OBJECT_ID":"2023-037F","REV_AT_EPOCH":"395","OBJECT_NAME":"STARLINK-5871"}];
